     3.00           N                   E                   RINEX VERSION / TYPE
BRD_USR             ESA                 20190116 001651  UTCPGM / RUN BY / DATE
 GAL   3.9750E+01  1.3281E-01 -1.4954E-03  0.0000E+00       IONOSPHERIC CORR
GAUT  1.8626451492E-09-8.881784197E-16 172800 2036 GSTB   0 TIME SYSTEM CORR
GPGA -4.4528860599E-09-2.442490654E-14 259200 2036 GSTB   0 TIME SYSTEM CORR
                                                            END OF HEADER
E01 2019 01 15 21 40 00-5.215429700911E-04-8.029132914089E-12 0.000000000000E+00
     3.400000000000E+01 1.085625000000E+02 2.995124758968E-09-3.081372425221E+00
     5.109235644341E-06 7.873668801039E-05 4.174187779427E-06 5.440619712830E+03
     2.508000000000E+05-7.450580596924E-08-3.071230131211E+00-2.793967723846E-08
     9.901017520664E-01 2.655625000000E+02-5.690373968631E-01-5.740953419468E-09
     1.185763677531E-10 2.580000000000E+02 2.036000000000E+03 0.000000000000E+00
     3.120000000000E+00 0.000000000000E+00-4.423782229424E-09 0.000000000000E+00
     2.520000000000E+05 0.000000000000E+00 0.000000000000E+00 0.000000000000E+00
E02 2019 01 15 21 40 00 4.348269430920E-05 1.534772309242E-12 0.000000000000E+00
     3.400000000000E+01 1.178125000000E+02 2.913692795572E-09-3.955673081433E-01
     5.500391125679E-06 2.477240050212E-04 4.958361387253E-06 5.440616434097E+03
     2.508000000000E+05 3.911554813385E-08-3.071263108311E+00 0.000000000000E+00
     9.901102984339E-01 2.481562500000E+02-1.149705650769E-01-5.548088243002E-09
     1.457203555520E-10 2.580000000000E+02 2.036000000000E+03 0.000000000000E+00
    -1.000000000000E+00 0.000000000000E+00-6.286427378654E-09 0.000000000000E+00
     2.520000000000E+05 0.000000000000E+00 0.000000000000E+00 0.000000000000E+00
E03 2019 01 15 21 20 00-1.225770101883E-04-4.277467269276E-12 0.000000000000E+00
     3.200000000000E+01-5.153125000000E+01 3.522289574642E-09 8.234807444327E-01
    -2.549961209297E-06 2.548594493419E-04 7.227063179016E-06 5.440612222672E+03
     2.496000000000E+05-1.862645149231E-08 1.119395454011E+00-5.029141902924E-08
     9.524104694332E-01 1.800312500000E+02 6.081602794253E-01-5.747382258683E-09
    -2.028655930234E-10 2.580000000000E+02 2.036000000000E+03 0.000000000000E+00
     3.120000000000E+00 0.000000000000E+00-2.095475792885E-09 0.000000000000E+00
     2.520000000000E+05 0.000000000000E+00 0.000000000000E+00 0.000000000000E+00
E04 2019 01 15 21 40 00-2.007925650105E-04-7.901235221652E-12 0.000000000000E+00
     3.400000000000E+01-3.478125000000E+01 3.510146211679E-09 1.743037612604E+00
    -1.670792698860E-06 6.906501948833E-05 8.083879947662E-06 5.440613426208E+03
     2.508000000000E+05 3.352761268616E-08 1.119439638526E+00-3.725290298462E-09
     9.524530827740E-01 1.629375000000E+02 2.198121380190E+00-5.739881946265E-09
    -2.675111429129E-10 2.580000000000E+02 2.036000000000E+03 0.000000000000E+00
     3.120000000000E+00 0.000000000000E+00-7.683411240578E-09 0.000000000000E+00
     2.520000000000E+05 0.000000000000E+00 0.000000000000E+00 0.000000000000E+00
E05 2019 01 15 21 40 00 1.244428567588E-04-6.522782314278E-12 0.000000000000E+00
     3.400000000000E+01-4.781250000000E+01 3.518717997300E-09 7.229495172692E-01
    -2.190470695496E-06 1.275524264202E-04 7.398426532745E-06 5.440609683990E+03
     2.508000000000E+05 3.911554813385E-08 1.119372562269E+00-2.421438694000E-08
     9.524235215883E-01 1.752500000000E+02 1.644975981338E+00-5.778812139293E-09
    -2.414386283166E-10 2.580000000000E+02 2.036000000000E+03 0.000000000000E+00
     3.120000000000E+00 0.000000000000E+00-1.629814505577E-09 0.000000000000E+00
     2.520000000000E+05 0.000000000000E+00 0.000000000000E+00 0.000000000000E+00
E07 2019 01 15 20 50 00-1.132298493758E-04-7.048583938740E-12 0.000000000000E+00
     2.900000000000E+01-4.078125000000E+01 3.433357298827E-09-3.123106726274E-01
    -1.838430762291E-06 1.352458493784E-04 7.728114724159E-06 5.440615209579E+03
     2.478000000000E+05-1.862645149231E-08 1.119406926215E+00 1.676380634308E-08
     9.524543438093E-01 1.696562500000E+02-4.960533135831E-02-5.702023226440E-09
    -1.789360248322E-10 2.580000000000E+02 2.036000000000E+03 0.000000000000E+00
     3.120000000000E+00 0.000000000000E+00 2.328306436539E-10 0.000000000000E+00
     2.520000000000E+05 0.000000000000E+00 0.000000000000E+00 0.000000000000E+00
E08 2019 01 15 21 40 00 6.422722013667E-03-7.474909580196E-12 0.000000000000E+00
     3.400000000000E+01-4.840625000000E+01 3.408713415167E-09 3.551235992719E-01
    -2.309679985046E-06 2.112159272656E-04 7.588416337967E-06 5.440613826752E+03
     2.508000000000E+05-2.421438694000E-08 1.110791851385E+00-1.490116119385E-08
     9.583964815175E-01 1.776875000000E+02 4.414746737179E-01-5.693451440820E-09
    -1.746501320219E-10 2.580000000000E+02 2.036000000000E+03 0.000000000000E+00
     3.120000000000E+00 0.000000000000E+00-8.847564458847E-09 0.000000000000E+00
     2.520000000000E+05 0.000000000000E+00 0.000000000000E+00 0.000000000000E+00
E09 2019 01 15 21 20 00 6.557195796631E-03-1.132605120802E-11 0.000000000000E+00
     3.200000000000E+01-4.768750000000E+01 3.451215185537E-09 2.940249790051E+00
    -2.173706889153E-06 2.375227632001E-04 7.960945367813E-06 5.440608798981E+03
     2.496000000000E+05 3.911554813385E-08 1.110796237213E+00-1.676380634308E-08
     9.584268385306E-01 1.678125000000E+02 6.249467830849E-02-5.703451857377E-09
    -2.442958901901E-10 2.580000000000E+02 2.036000000000E+03 0.000000000000E+00
     3.120000000000E+00 0.000000000000E+00-3.259629011154E-09 0.000000000000E+00
     2.520000000000E+05 0.000000000000E+00 0.000000000000E+00 0.000000000000E+00
E11 2019 01 15 21 40 00 5.719853972550E-03 6.679101716145E-13 0.000000000000E+00
     3.400000000000E+01-9.603125000000E+01 2.521890761159E-09-6.791218799237E-01
    -4.425644874573E-06 2.891704207286E-04 1.090578734875E-05 5.440611499786E+03
     2.508000000000E+05 3.539025783539E-08-9.859123789337E-01 0.000000000000E+00
     9.820037032073E-01 1.184375000000E+02-3.565924655761E-01-5.359151801612E-09
     9.286101089098E-11 2.580000000000E+02 2.036000000000E+03 0.000000000000E+00
     3.120000000000E+00 0.000000000000E+00-1.839362084866E-08 0.000000000000E+00
     2.520000000000E+05 0.000000000000E+00 0.000000000000E+00 0.000000000000E+00
E12 2019 01 15 21 40 00 5.950587044936E-03 8.436984444415E-11 0.000000000000E+00
     3.400000000000E+01-8.028125000000E+01 2.668325432179E-09 6.119814024304E-01
    -3.827735781670E-06 4.096174379811E-04 1.114979386330E-05 5.440608705521E+03
     2.508000000000E+05 1.303851604462E-08-9.859280716559E-01 4.284083843231E-08
     9.820172176446E-01 1.083125000000E+02-8.440856515326E-01-5.422725878299E-09
     1.171477368163E-10 2.580000000000E+02 2.036000000000E+03 0.000000000000E+00
     3.120000000000E+00 0.000000000000E+00-1.536682248116E-08 0.000000000000E+00
     2.520000000000E+05 0.000000000000E+00 0.000000000000E+00 0.000000000000E+00
E13 2019 01 15 20 50 00 3.817770630121E-04 4.973799150321E-13 0.000000000000E+00
     2.900000000000E+01-5.200000000000E+01 2.572250001680E-09-3.067597061936E+00
    -2.468004822731E-06 3.510210663080E-04 9.603798389435E-06 5.440599895477E+03
     2.478000000000E+05-3.166496753693E-08-9.911760986230E-01-9.313225746155E-08
     9.852452678087E-01 1.493125000000E+02-1.475056753212E+00-5.327007605535E-09
     6.428839215530E-11 2.580000000000E+02 2.036000000000E+03 0.000000000000E+00
     3.120000000000E+00 5.600000000000E+01-4.423782229424E-09 0.000000000000E+00
     2.520000000000E+05 0.000000000000E+00 0.000000000000E+00 0.000000000000E+00
E14 2019 01 15 21 30 00 6.459390686359E-03-5.584865903074E-12 0.000000000000E+00
     3.300000000000E+01-2.225937500000E+02 5.217717338871E-09 2.271383600770E+00
    -9.298324584961E-06 1.662868637359E-01 3.911554813385E-07 5.289374240875E+03
     2.502000000000E+05 3.071501851082E-06-1.588472814223E+00-7.227063179016E-07
     8.826423394477E-01 3.225312500000E+02 1.458645648960E+00-5.959533952796E-09
    -1.214336296267E-11 2.580000000000E+02 2.036000000000E+03 0.000000000000E+00
     3.120000000000E+00 5.600000000000E+01 3.282912075520E-08 0.000000000000E+00
     2.520000000000E+05 0.000000000000E+00 0.000000000000E+00 0.000000000000E+00
E15 2019 01 15 21 40 00 9.228649432771E-04-1.080024958355E-12 0.000000000000E+00
     3.400000000000E+01-6.837500000000E+01 2.563321058325E-09-1.815003684840E+00
    -3.255903720856E-06 3.947528311983E-04 8.907169103622E-06 5.440605442047E+03
     2.508000000000E+05 3.911554813385E-08-9.912039481945E-01-2.235174179077E-08
     9.852026193579E-01 1.632187500000E+02-1.573417381527E+00-5.404153676121E-09
     6.571702309208E-11 2.580000000000E+02 2.036000000000E+03 0.000000000000E+00
     3.120000000000E+00 5.600000000000E+01 1.396983861923E-09 0.000000000000E+00
     2.520000000000E+05 0.000000000000E+00 0.000000000000E+00 0.000000000000E+00
E18 2019 01 15 20 50 00 5.603687081020E-03-2.847855284926E-11 0.000000000000E+00
     2.900000000000E+01 1.093750000000E+00 4.173030966347E-09-1.224602960257E+00
     1.290813088417E-06 1.663240477210E-01 7.940456271172E-06 5.289362653732E+03
     2.478000000000E+05 1.518055796623E-06-1.571251878022E+00 5.472451448441E-06
     8.818469260184E-01 1.917187500000E+02 1.443258719027E+00-6.531700642978E-09
    -1.113617815223E-09 2.580000000000E+02 2.036000000000E+03 0.000000000000E+00
     3.120000000000E+00 5.600000000000E+01 1.443549990654E-08 0.000000000000E+00
     2.520000000000E+05 0.000000000000E+00 0.000000000000E+00 0.000000000000E+00
